{
    "links": {
        "self": "http://www.neowsapp.com/rest/v1/neo/3789603?api_key=iIulBulltgU6a56xZRHN4H3l9WmuAYTsLGpBGhQ2"
    },
    "id": "3789603",
    "neo_reference_id": "3789603",
    "name": "(2017 WT12)",
    "designation": "2017 WT12",
    "nasa_jpl_url": "http://ssd.jpl.nasa.gov/sbdb.cgi?sstr=3789603",
    "absolute_magnitude_h": 27.1,
    "estimated_diameter": {
        "kilometers": {
            "estimated_diameter_min": 0.0101054342,
            "estimated_diameter_max": 0.0225964377
        },
        "meters": {
            "estimated_diameter_min": 10.1054341542,
            "estimated_diameter_max": 22.5964377109
        },
        "miles": {
            "estimated_diameter_min": 0.0062792237,
            "estimated_diameter_max": 0.0140407711
        },
        "feet": {
            "estimated_diameter_min": 33.1543125905,
            "estimated_diameter_max": 74.1352966996
        }
    },
    "is_potentially_hazardous_asteroid": false,
    "close_approach_data": [
        {
            "close_approach_date": "2017-11-25",
            "close_approach_date_full": "2017-Nov-25 17:00",
            "epoch_date_close_approach": 1511629200000,
            "relative_velocity": {
                "kilometers_per_second": "14.7067803876",
                "kilometers_per_hour": "52944.4093952095",
                "miles_per_hour": "32897.5970489289"
            },
            "miss_distance": {
                "astronomical": "0.0075864401",
                "lunar": "2.9511251989",
                "kilometers": "1134915.279842587",
                "miles": "705203.6541662206"
            },
            "orbiting_body": "Earth"
        },
        {
            "close_approach_date": "2017-11-25",
            "close_approach_date_full": "2017-Nov-25 17:22",
            "epoch_date_close_approach": 1511630520000,
            "relative_velocity": {
                "kilometers_per_second": "15.5859292151",
                "kilometers_per_hour": "56109.3451744504",
                "miles_per_hour": "34864.1650613133"
            },
            "miss_distance": {
                "astronomical": "0.0088489294",
                "lunar": "3.4422335366",
                "kilometers": "1323780.990020378",
                "miles": "822559.3646140964"
            },
            "orbiting_body": "Moon"
        },
        {
            "close_approach_date": "2033-11-16",
            "close_approach_date_full": "2033-Nov-16 11:22",
            "epoch_date_close_approach": 2015752920000,
            "relative_velocity": {
                "kilometers_per_second": "18.48258348",
                "kilometers_per_hour": "66537.3005281624",
                "miles_per_hour": "41343.6909865129"
            },
            "miss_distance": {
                "astronomical": "0.13436986",
                "lunar": "52.26987554",
                "kilometers": "20101444.8481982",
                "miles": "12490458.63840716"
            },
            "orbiting_body": "Earth"
        }
    ],
    "orbital_data": {
        "orbit_id": "2",
        "orbit_determination_date": "2017-11-27 06:24:30",
        "first_observation_date": "2017-11-19",
        "last_observation_date": "2017-11-24",
        "data_arc_in_days": 5,
        "observations_used": 47,
        "orbit_uncertainty": "7",
        "minimum_orbit_intersection": ".00666842",
        "jupiter_tisserand_invariant": "3.682",
        "epoch_osculation": "2459000.5",
        "eccentricity": ".5834418081764965",
        "semi_major_axis": "1.921325413550781",
        "inclination": "9.368656543406335",
        "ascending_node_longitude": "241.1553830290744",
        "orbital_period": "972.7468155433284",
        "perihelion_distance": ".8003438401732583",
        "perihelion_argument": "243.3909520518597",
        "aphelion_distance": "3.042306986928303",
        "perihelion_time": "2459097.127435168616",
        "mean_anomaly": "324.2395368405578",
        "mean_motion": ".3700860226398395",
        "equinox": "J2000",
        "orbit_class": {
            "orbit_class_type": "APO",
            "orbit_class_description": "Near-Earth asteroid orbits which cross the Earth’s orbit similar to that of 1862 Apollo",
            "orbit_class_range": "a (semi-major axis) > 1.0 AU; q (perihelion) < 1.017 AU"
        }
    },
    "is_sentry_object": false
}